[{"OBJECT_NAME":"STARLINK-31921","OBJECT_ID":"2024-098L","EPOCH":"2026-03-09T12:11:39.854688","MEAN_MOTION":15.27557354,"ECCENTRICITY":0.00019779,"INCLINATION":43.0058,"RA_OF_ASC_NODE":238.6667,"ARG_OF_PERICENTER":279.3579,"MEAN_ANOMALY":80.7049,"EPHEMERIS_TYPE":0,"CLASSIFICATION_TYPE":"U","NORAD_CAT_ID":59868,"ELEMENT_SET_NO":999,"REV_AT_EPOCH":10227,"BSTAR":-0.00012765968,"MEAN_MOTION_DOT":-3.771e-5,"MEAN_MOTION_DDOT":0},{"OBJECT_NAME":"OBJECT D","OBJECT_ID":"2024-174D","EPOCH":"2026-03-10T00:15:10.483200","MEAN_MOTION":15.28039787,"ECCENTRICITY":0.00110644,"INCLINATION":97.4441,"RA_OF_ASC_NODE":80.4677,"ARG_OF_PERICENTER":212.9968,"MEAN_ANOMALY":147.0582,"EPHEMERIS_TYPE":0,"CLASSIFICATION_TYPE":"U","NORAD_CAT_ID":61241,"ELEMENT_SET_NO":999,"REV_AT_EPOCH":8076,"BSTAR":0.00036340099,"MEAN_MOTION_DOT":9.884e-5,"MEAN_MOTION_DDOT":0}]
